[
    {
        "Altitude(m)": 563364.2801163724,
        "Argument of Periapsis(deg)": 0.013245982221427002,
        "Eccentricity": 0.0,
        "Inclination(deg)": 53.0,
        "Latitude(deg)": -32.241902899205485,
        "Longitude(deg)": -4.786875968822268,
        "Mean Anomaly(deg)": -41.63491426484481,
        "RAAN(deg)": 124.98028673705605,
        "Satellite Name": "Starlink Shell 1 568",
        "Satellite Number": 568,
        "Semi-Major Axis(m)": 6931778.249405717,
        "Time(s)": 380
    },
    {
        "Altitude(m)": 563188.9889439761,
        "Argument of Periapsis(deg)": 0.013594560700938237,
        "Eccentricity": 0.0,
        "Inclination(deg)": 53.0,
        "Latitude(deg)": -31.798840565404237,
        "Longitude(deg)": -4.306277393089946,
        "Mean Anomaly(deg)": -41.00808306128811,
        "RAAN(deg)": 124.97976796697857,
        "Satellite Name": "Starlink Shell 1 568",
        "Satellite Number": 568,
        "Semi-Major Axis(m)": 6931778.249405717,
        "Time(s)": 390
    },
    {
        "Altitude(m)": 563013.5973654795,
        "Argument of Periapsis(deg)": 0.013943139180449475,
        "Eccentricity": 0.0,
        "Inclination(deg)": 53.0,
        "Latitude(deg)": -31.353615538253013,
        "Longitude(deg)": -3.8306279308888955,
        "Mean Anomaly(deg)": -40.38125185773139,
        "RAAN(deg)": 124.9792491969011,
        "Satellite Name": "Starlink Shell 1 568",
        "Satellite Number": 568,
        "Semi-Major Axis(m)": 6931778.249405717,
        "Time(s)": 400
    },
    {
        "Altitude(m)": 562838.1715648231,
        "Argument of Periapsis(deg)": 0.014291717659960712,
        "Eccentricity": 0.0,
        "Inclination(deg)": 53.0,
        "Latitude(deg)": -30.906283569438624,
        "Longitude(deg)": -3.3598186121789215,
        "Mean Anomaly(deg)": -39.75442065417463,
        "RAAN(deg)": 124.97873042682362,
        "Satellite Name": "Starlink Shell 1 568",
        "Satellite Number": 568,
        "Semi-Major Axis(m)": 6931778.249405717,
        "Time(s)": 410
    },
    {
        "Altitude(m)": 562662.777595321,
        "Argument of Periapsis(deg)": 0.014640296139471948,
        "Eccentricity": 0.0,
        "Inclination(deg)": 53.0,
        "Latitude(deg)": -30.456899165664183,
        "Longitude(deg)": -2.893742177839318,
        "Mean Anomaly(deg)": -39.12758945061794,
        "RAAN(deg)": 124.97821165674615,
        "Satellite Name": "Starlink Shell 1 568",
        "Satellite Number": 568,
        "Semi-Major Axis(m)": 6931778.249405717,
        "Time(s)": 420
    },
    {
        "Altitude(m)": 562487.481350065,
        "Argument of Periapsis(deg)": 0.014988874618983185,
        "Eccentricity": 0.0,
        "Inclination(deg)": 53.0,
        "Latitude(deg)": -30.005515620622575,
        "Longitude(deg)": -2.432292601245325,
        "Mean Anomaly(deg)": -38.500758247061256,
        "RAAN(deg)": 124.97769288666866,
        "Satellite Name": "Starlink Shell 1 568",
        "Satellite Number": 568,
        "Semi-Major Axis(m)": 6931778.249405717,
        "Time(s)": 430
    },
    {
        "Altitude(m)": 562312.3485323889,
        "Argument of Periapsis(deg)": 0.015337453098494424,
        "Eccentricity": 0.0,
        "Inclination(deg)": 53.0,
        "Latitude(deg)": -29.55218504671565,
        "Longitude(deg)": -1.9753646051410125,
        "Mean Anomaly(deg)": -37.87392704350456,
        "RAAN(deg)": 124.97717411659121,
        "Satellite Name": "Starlink Shell 1 568",
        "Satellite Number": 568,
        "Semi-Major Axis(m)": 6931778.249405717,
        "Time(s)": 440
    },
    {
        "Altitude(m)": 562137.4446264175,
        "Argument of Periapsis(deg)": 0.01568603157800566,
        "Eccentricity": 0.0,
        "Inclination(deg)": 53.0,
        "Latitude(deg)": -29.09695840647755,
        "Longitude(deg)": -1.5228546870202555,
        "Mean Anomaly(deg)": -37.24709583994782,
        "RAAN(deg)": 124.97665534651374,
        "Satellite Name": "Starlink Shell 1 568",
        "Satellite Number": 568,
        "Semi-Major Axis(m)": 6931778.249405717,
        "Time(s)": 450
    },
    {
        "Altitude(m)": 561962.8348677116,
        "Argument of Periapsis(deg)": 0.0160346100575169,
        "Eccentricity": 0.0,
        "Inclination(deg)": 53.0,
        "Latitude(deg)": -28.639885543657805,
        "Longitude(deg)": -1.0746606275892876,
        "Mean Anomaly(deg)": -36.62026463639108,
        "RAAN(deg)": 124.97613657643626,
        "Satellite Name": "Starlink Shell 1 568",
        "Satellite Number": 568,
        "Semi-Major Axis(m)": 6931778.249405717,
        "Time(s)": 460
    },
    {
        "Altitude(m)": 561788.5842140149,
        "Argument of Periapsis(deg)": 0.016383188537028134,
        "Eccentricity": 0.0,
        "Inclination(deg)": 53.0,
        "Latitude(deg)": -28.181015213932056,
        "Longitude(deg)": -0.630680995485803,
        "Mean Anomaly(deg)": -35.99343343283439,
        "RAAN(deg)": 124.97561780635878,
        "Satellite Name": "Starlink Shell 1 568",
        "Satellite Number": 568,
        "Semi-Major Axis(m)": 6931778.249405717,
        "Time(s)": 470
    },
    {
        "Altitude(m)": 561614.7573160876,
        "Argument of Periapsis(deg)": 0.01673176701653937,
        "Eccentricity": 0.0,
        "Inclination(deg)": 53.0,
        "Latitude(deg)": -27.72039511521441,
        "Longitude(deg)": -0.190816161414282,
        "Mean Anomaly(deg)": -35.366602229277674,
        "RAAN(deg)": 124.97509903628132,
        "Satellite Name": "Starlink Shell 1 568",
        "Satellite Number": 568,
        "Semi-Major Axis(m)": 6931778.249405717,
        "Time(s)": 480
    },
    {
        "Altitude(m)": 561441.4184887708,
        "Argument of Periapsis(deg)": 0.017080345496050607,
        "Eccentricity": 0.0,
        "Inclination(deg)": 53.0,
        "Latitude(deg)": -27.25807191753949,
        "Longitude(deg)": 0.24503220378225776,
        "Mean Anomaly(deg)": -34.739771025720955,
        "RAAN(deg)": 124.97458026620383,
        "Satellite Name": "Starlink Shell 1 568",
        "Satellite Number": 568,
        "Semi-Major Axis(m)": 6931778.249405717,
        "Time(s)": 490
    },
    {
        "Altitude(m)": 561268.6316820729,
        "Argument of Periapsis(deg)": 0.017428923975561842,
        "Eccentricity": 0.0,
        "Inclination(deg)": 53.0,
        "Latitude(deg)": -26.79409129249564,
        "Longitude(deg)": 0.676961633987514,
        "Mean Anomaly(deg)": -34.11293982216419,
        "RAAN(deg)": 124.97406149612638,
        "Satellite Name": "Starlink Shell 1 568",
        "Satellite Number": 568,
        "Semi-Major Axis(m)": 6931778.249405717,
        "Time(s)": 500
    },
    {
        "Altitude(m)": 561096.4604525175,
        "Argument of Periapsis(deg)": 0.01777750245507308,
        "Eccentricity": 0.0,
        "Inclination(deg)": 53.0,
        "Latitude(deg)": -26.32849794219383,
        "Longitude(deg)": 1.1050678625046098,
        "Mean Anomaly(deg)": -33.486108618607496,
        "RAAN(deg)": 124.9735427260489,
        "Satellite Name": "Starlink Shell 1 568",
        "Satellite Number": 568,
        "Semi-Major Axis(m)": 6931778.249405717,
        "Time(s)": 510
    },
    {
        "Altitude(m)": 560924.9679346279,
        "Argument of Periapsis(deg)": 0.018126080934584315,
        "Eccentricity": 0.0,
        "Inclination(deg)": 53.0,
        "Latitude(deg)": -25.861335627750965,
        "Longitude(deg)": 1.529445332100865,
        "Mean Anomaly(deg)": -32.85927741505078,
        "RAAN(deg)": 124.9730239559714,
        "Satellite Name": "Starlink Shell 1 568",
        "Satellite Number": 568,
        "Semi-Major Axis(m)": 6931778.249405717,
        "Time(s)": 520
    },
    {
        "Altitude(m)": 560754.2168126088,
        "Argument of Periapsis(deg)": 0.018474659414095554,
        "Eccentricity": 0.0,
        "Inclination(deg)": 53.0,
        "Latitude(deg)": -25.392647197279505,
        "Longitude(deg)": 1.9501877073231082,
        "Mean Anomaly(deg)": -32.23244621149412,
        "RAAN(deg)": 124.97250518589395,
        "Satellite Name": "Starlink Shell 1 568",
        "Satellite Number": 568,
        "Semi-Major Axis(m)": 6931778.249405717,
        "Time(s)": 530
    },
    {
        "Altitude(m)": 560584.2692922292,
        "Argument of Periapsis(deg)": 0.018823237893606792,
        "Eccentricity": 0.0,
        "Inclination(deg)": 53.0,
        "Latitude(deg)": -24.922474613375247,
        "Longitude(deg)": 2.367386876016449,
        "Mean Anomaly(deg)": -31.605615007937374,
        "RAAN(deg)": 124.97198641581649,
        "Satellite Name": "Starlink Shell 1 568",
        "Satellite Number": 568,
        "Semi-Major Axis(m)": 6931778.249405717,
        "Time(s)": 540
    },
    {
        "Altitude(m)": 560415.1870729292,
        "Argument of Periapsis(deg)": 0.019171816373118027,
        "Eccentricity": 0.0,
        "Inclination(deg)": 53.0,
        "Latitude(deg)": -24.45085898009234,
        "Longitude(deg)": 2.781133465610531,
        "Mean Anomaly(deg)": -30.97878380438064,
        "RAAN(deg)": 124.971467645739,
        "Satellite Name": "Starlink Shell 1 568",
        "Satellite Number": 568,
        "Semi-Major Axis(m)": 6931778.249405717,
        "Time(s)": 550
    },
    {
        "Altitude(m)": 560247.031320182,
        "Argument of Periapsis(deg)": 0.019520394852629266,
        "Eccentricity": 0.0,
        "Inclination(deg)": 53.0,
        "Latitude(deg)": -23.977840569401963,
        "Longitude(deg)": 3.191517361132399,
        "Mean Anomaly(deg)": -30.351952600823946,
        "RAAN(deg)": 124.97094887566152,
        "Satellite Name": "Starlink Shell 1 568",
        "Satellite Number": 568,
        "Semi-Major Axis(m)": 6931778.249405717,
        "Time(s)": 560
    }
]